STARLINK-35783          
1 66286U 25247X   25322.83335647 -.02017435  00000+0 -38377-1 0  9993
2 66286  53.1595 350.3841 0000629  93.1085 291.4513 15.50923716  3721
STARLINK-34884          
1 66287U 25247Y   25322.83335647 -.02035971  00000+0 -38756-1 0  9990
2 66287  53.1597 350.3809 0000669  93.6285 292.8464 15.50934972  4041
STARLINK-34896          
1 66288U 25247Z   25322.83335647 -.02034750  00000+0 -38731-1 0  9998
2 66288  53.1597 350.3768 0000716  95.5560 292.8366 15.50933973  4047
STARLINK-35802          
1 66289U 25247AA  25322.83335647 -.02020181  00000+0 -38434-1 0  9992
2 66289  53.1596 350.3725 0000581  96.4888 293.8218 15.50925149  3720
STARLINK-35799          
1 66290U 25247AB  25322.83335647 -.02017877  00000+0 -38388-1 0  9990
2 66290  53.1597 350.3688 0000622  99.5936 292.6358 15.50922314  4099
STARLINK-35800          
1 66291U 25247AC  25322.83335647 -.02005316  00000+0 -38130-1 0  9991
2 66291  53.1596 350.3600 0000662 107.0835 288.9813 15.50914979  4092
STARLINK-35798          
1 66292U 25247AD  25322.83335647 -.01999987  00000+0 -38020-1 0  9995
2 66292  53.1597 350.3642 0000706 106.4597 287.6874 15.50912384  3772
CMS-03 (GSAT-7R)        
1 66311U 25249B   25322.75115625 -.00000239  00000+0  00000+0 0  9998
2 66311   0.2014 271.5019 0004672 197.7802 312.6688  1.00274473   242
YAOGAN-46               
1 66313U 25250A   25316.61346953 -.00000009  00000+0  00000+0 0  9995
2 66313  20.0301 111.3998 0049241 123.4899 237.0003  5.35115895   585
SENTINEL-1D             
1 66315U 25251A   25322.59395334  .00000273  00000+0  67160-4 0  9996
2 66315  98.1943 327.9287 0000920 234.3959 125.7155 14.59586911  2019
QPS-SAR-14 (YACHIHOKO-I)
1 66316U 25252A   25322.72531203  .00006095  00000+0  53078-3 0  9990
2 66316  42.0041 206.9876 0008645 343.5894  16.4650 14.97363587  1930
