CCSDS_OMM_VERS = 2.0
CREATION_DATE  = 
ORIGINATOR     = 

OBJECT_NAME    = STARLINK-35783
OBJECT_ID      = 2025-247X
CENTER_NAME    = EARTH
REF_FRAME      = TEME
TIME_SYSTEM    = UTC
MEAN_ELEMENT_THEORY = SGP/SGP4

EPOCH          = 2025-11-18T20:00:01.999008
MEAN_MOTION    = 15.50923716
ECCENTRICITY   = .0000629
INCLINATION    = 53.1595
RA_OF_ASC_NODE = 350.3841
ARG_OF_PERICENTER = 93.1085
MEAN_ANOMALY   = 291.4513

EPHEMERIS_TYPE = 0
CLASSIFICATION_TYPE = U
NORAD_CAT_ID   = 66286
ELEMENT_SET_NO = 999
REV_AT_EPOCH   = 372
BSTAR          = -.38377E-1
MEAN_MOTION_DOT = -.2017435E-1
MEAN_MOTION_DDOT = 0

CCSDS_OMM_VERS = 2.0
CREATION_DATE  = 
ORIGINATOR     = 

OBJECT_NAME    = STARLINK-34884
OBJECT_ID      = 2025-247Y
CENTER_NAME    = EARTH
REF_FRAME      = TEME
TIME_SYSTEM    = UTC
MEAN_ELEMENT_THEORY = SGP/SGP4

EPOCH          = 2025-11-18T20:00:01.999008
MEAN_MOTION    = 15.50934972
ECCENTRICITY   = .0000669
INCLINATION    = 53.1597
RA_OF_ASC_NODE = 350.3809
ARG_OF_PERICENTER = 93.6285
MEAN_ANOMALY   = 292.8464

EPHEMERIS_TYPE = 0
CLASSIFICATION_TYPE = U
NORAD_CAT_ID   = 66287
ELEMENT_SET_NO = 999
REV_AT_EPOCH   = 404
BSTAR          = -.38756E-1
MEAN_MOTION_DOT = -.2035971E-1
MEAN_MOTION_DDOT = 0

CCSDS_OMM_VERS = 2.0
CREATION_DATE  = 
ORIGINATOR     = 

OBJECT_NAME    = STARLINK-34896
OBJECT_ID      = 2025-247Z
CENTER_NAME    = EARTH
REF_FRAME      = TEME
TIME_SYSTEM    = UTC
MEAN_ELEMENT_THEORY = SGP/SGP4

EPOCH          = 2025-11-18T20:00:01.999008
MEAN_MOTION    = 15.50933973
ECCENTRICITY   = .0000716
INCLINATION    = 53.1597
RA_OF_ASC_NODE = 350.3768
ARG_OF_PERICENTER = 95.5560
MEAN_ANOMALY   = 292.8366

EPHEMERIS_TYPE = 0
CLASSIFICATION_TYPE = U
NORAD_CAT_ID   = 66288
ELEMENT_SET_NO = 999
REV_AT_EPOCH   = 404
BSTAR          = -.38731E-1
MEAN_MOTION_DOT = -.203475E-1
MEAN_MOTION_DDOT = 0

CCSDS_OMM_VERS = 2.0
CREATION_DATE  = 
ORIGINATOR     = 

OBJECT_NAME    = STARLINK-35802
OBJECT_ID      = 2025-247AA
CENTER_NAME    = EARTH
REF_FRAME      = TEME
TIME_SYSTEM    = UTC
MEAN_ELEMENT_THEORY = SGP/SGP4

EPOCH          = 2025-11-18T20:00:01.999008
MEAN_MOTION    = 15.50925149
ECCENTRICITY   = .0000581
INCLINATION    = 53.1596
RA_OF_ASC_NODE = 350.3725
ARG_OF_PERICENTER = 96.4888
MEAN_ANOMALY   = 293.8218

EPHEMERIS_TYPE = 0
CLASSIFICATION_TYPE = U
NORAD_CAT_ID   = 66289
ELEMENT_SET_NO = 999
REV_AT_EPOCH   = 372
BSTAR          = -.38434E-1
MEAN_MOTION_DOT = -.2020181E-1
MEAN_MOTION_DDOT = 0

CCSDS_OMM_VERS = 2.0
CREATION_DATE  = 
ORIGINATOR     = 

OBJECT_NAME    = STARLINK-35799
OBJECT_ID      = 2025-247AB
CENTER_NAME    = EARTH
REF_FRAME      = TEME
TIME_SYSTEM    = UTC
MEAN_ELEMENT_THEORY = SGP/SGP4

EPOCH          = 2025-11-18T20:00:01.999008
MEAN_MOTION    = 15.50922314
ECCENTRICITY   = .0000622
INCLINATION    = 53.1597
RA_OF_ASC_NODE = 350.3688
ARG_OF_PERICENTER = 99.5936
MEAN_ANOMALY   = 292.6358

EPHEMERIS_TYPE = 0
CLASSIFICATION_TYPE = U
NORAD_CAT_ID   = 66290
ELEMENT_SET_NO = 999
REV_AT_EPOCH   = 409
BSTAR          = -.38388E-1
MEAN_MOTION_DOT = -.2017877E-1
MEAN_MOTION_DDOT = 0

CCSDS_OMM_VERS = 2.0
CREATION_DATE  = 
ORIGINATOR     = 

OBJECT_NAME    = STARLINK-35800
OBJECT_ID      = 2025-247AC
CENTER_NAME    = EARTH
REF_FRAME      = TEME
TIME_SYSTEM    = UTC
MEAN_ELEMENT_THEORY = SGP/SGP4

EPOCH          = 2025-11-18T20:00:01.999008
MEAN_MOTION    = 15.50914979
ECCENTRICITY   = .0000662
INCLINATION    = 53.1596
RA_OF_ASC_NODE = 350.3600
ARG_OF_PERICENTER = 107.0835
MEAN_ANOMALY   = 288.9813

EPHEMERIS_TYPE = 0
CLASSIFICATION_TYPE = U
NORAD_CAT_ID   = 66291
ELEMENT_SET_NO = 999
REV_AT_EPOCH   = 409
BSTAR          = -.3813E-1
MEAN_MOTION_DOT = -.2005316E-1
MEAN_MOTION_DDOT = 0

CCSDS_OMM_VERS = 2.0
CREATION_DATE  = 
ORIGINATOR     = 

OBJECT_NAME    = STARLINK-35798
OBJECT_ID      = 2025-247AD
CENTER_NAME    = EARTH
REF_FRAME      = TEME
TIME_SYSTEM    = UTC
MEAN_ELEMENT_THEORY = SGP/SGP4

EPOCH          = 2025-11-18T20:00:01.999008
MEAN_MOTION    = 15.50912384
ECCENTRICITY   = .0000706
INCLINATION    = 53.1597
RA_OF_ASC_NODE = 350.3642
ARG_OF_PERICENTER = 106.4597
MEAN_ANOMALY   = 287.6874

EPHEMERIS_TYPE = 0
CLASSIFICATION_TYPE = U
NORAD_CAT_ID   = 66292
ELEMENT_SET_NO = 999
REV_AT_EPOCH   = 377
BSTAR          = -.3802E-1
MEAN_MOTION_DOT = -.1999987E-1
MEAN_MOTION_DDOT = 0

CCSDS_OMM_VERS = 2.0
CREATION_DATE  = 
ORIGINATOR     = 

OBJECT_NAME    = CMS-03 (GSAT-7R)
OBJECT_ID      = 2025-249B
CENTER_NAME    = EARTH
REF_FRAME      = TEME
TIME_SYSTEM    = UTC
MEAN_ELEMENT_THEORY = SGP/SGP4

EPOCH          = 2025-11-18T18:01:39.900000
MEAN_MOTION    = 1.00274473
ECCENTRICITY   = .0004672
INCLINATION    = 0.2014
RA_OF_ASC_NODE = 271.5019
ARG_OF_PERICENTER = 197.7802
MEAN_ANOMALY   = 312.6688

EPHEMERIS_TYPE = 0
CLASSIFICATION_TYPE = U
NORAD_CAT_ID   = 66311
ELEMENT_SET_NO = 999
REV_AT_EPOCH   = 24
BSTAR          = 0
MEAN_MOTION_DOT = -.239E-5
MEAN_MOTION_DDOT = 0

CCSDS_OMM_VERS = 2.0
CREATION_DATE  = 
ORIGINATOR     = 

OBJECT_NAME    = YAOGAN-46
OBJECT_ID      = 2025-250A
CENTER_NAME    = EARTH
REF_FRAME      = TEME
TIME_SYSTEM    = UTC
MEAN_ELEMENT_THEORY = SGP/SGP4

EPOCH          = 2025-11-12T14:43:23.767392
MEAN_MOTION    = 5.35115895
ECCENTRICITY   = .00492414
INCLINATION    = 20.0301
RA_OF_ASC_NODE = 111.3998
ARG_OF_PERICENTER = 123.4899
MEAN_ANOMALY   = 237.0003

EPHEMERIS_TYPE = 0
CLASSIFICATION_TYPE = U
NORAD_CAT_ID   = 66313
ELEMENT_SET_NO = 999
REV_AT_EPOCH   = 58
BSTAR          = 0
MEAN_MOTION_DOT = -.9E-7
MEAN_MOTION_DDOT = 0

CCSDS_OMM_VERS = 2.0
CREATION_DATE  = 
ORIGINATOR     = 

OBJECT_NAME    = SENTINEL-1D
OBJECT_ID      = 2025-251A
CENTER_NAME    = EARTH
REF_FRAME      = TEME
TIME_SYSTEM    = UTC
MEAN_ELEMENT_THEORY = SGP/SGP4

EPOCH          = 2025-11-18T14:15:17.568576
MEAN_MOTION    = 14.59586911
ECCENTRICITY   = .000092
INCLINATION    = 98.1943
RA_OF_ASC_NODE = 327.9287
ARG_OF_PERICENTER = 234.3959
MEAN_ANOMALY   = 125.7155

EPHEMERIS_TYPE = 0
CLASSIFICATION_TYPE = U
NORAD_CAT_ID   = 66315
ELEMENT_SET_NO = 999
REV_AT_EPOCH   = 201
BSTAR          = .6716E-4
MEAN_MOTION_DOT = .273E-5
MEAN_MOTION_DDOT = 0

CCSDS_OMM_VERS = 2.0
CREATION_DATE  = 
ORIGINATOR     = 

OBJECT_NAME    = QPS-SAR-14 (YACHIHOKO-I)
OBJECT_ID      = 2025-252A
CENTER_NAME    = EARTH
REF_FRAME      = TEME
TIME_SYSTEM    = UTC
MEAN_ELEMENT_THEORY = SGP/SGP4

EPOCH          = 2025-11-18T17:24:26.959392
MEAN_MOTION    = 14.97363587
ECCENTRICITY   = .0008645
INCLINATION    = 42.0041
RA_OF_ASC_NODE = 206.9876
ARG_OF_PERICENTER = 343.5894
MEAN_ANOMALY   = 16.4650

EPHEMERIS_TYPE = 0
CLASSIFICATION_TYPE = U
NORAD_CAT_ID   = 66316
ELEMENT_SET_NO = 999
REV_AT_EPOCH   = 193
BSTAR          = .53078E-3
MEAN_MOTION_DOT = .6095E-4
MEAN_MOTION_DDOT = 0

